COSMOS 2425 (716)       
1 29670U 06062A   21333.75022997  .00000001  00000+0  00000+0 0  9990
2 29670  64.8039 249.8677 0024169 345.3478 263.5396  2.13111334116196
COSMOS 2433 (720)       
1 32275U 07052A   21333.67896456 -.00000035  00000+0  00000+0 0  9993
2 32275  66.0780  11.3012 0004754 237.1532 123.2286  2.13104218109713
COSMOS 2432 (719)       
1 32276U 07052B   21333.67290770 -.00000035  00000+0  00000+0 0  9991
2 32276  66.0908  11.3997 0009625 314.7623 349.7961  2.13103385109701
COSMOS 2434 (721)       
1 32393U 07065A   21333.68108666  .00000002  00000+0  00000+0 0  9991
2 32393  64.4231 248.2520 0001965  70.5091 180.3630  2.13103103108417
COSMOS 2436 (723)       
1 32395U 07065C   21333.54092529  .00000002  00000+0  00000+0 0  9998
2 32395  64.4321 248.3119 0015703 356.8806 282.4683  2.13102878108345
COSMOS 2456 (730)       
1 36111U 09070A   21333.54044719  .00000102  00000+0  00000+0 0  9995
2 36111  64.3071 127.9183 0001645 351.4237 319.9314  2.13099220 93074
COSMOS 2457 (733)       
1 36112U 09070B   21333.73965561  .00000100  00000+0  00000+0 0  9992
2 36112  64.2901 127.7922 0006868 148.4388  81.4435  2.13101414 93083
COSMOS 2459 (731)       
1 36400U 10007A   21333.80310053 -.00000034  00000+0  00000+0 0  9999
2 36400  65.9714  10.2002 0025825 345.2386 330.8980  2.13112755 91429
COSMOS 2461 (735)       
1 36401U 10007B   21333.57414209 -.00000034  00000+0  00000+0 0  9992
2 36401  65.9672  10.1719 0018397   1.7183 135.8936  2.13103606 91432
COSMOS 2460 (732)       
1 36402U 10007C   21333.56956422 -.00000034  00000+0  00000+0 0  9990
2 36402  65.9538  10.1258 0002109 228.9463 211.6477  2.13106444 91436
COSMOS 2464 (736)       
1 37139U 10041C   21333.88682591  .00000004  00000+0  00000+0 0  9990
2 37139  64.0217 247.4197 0028737   8.1140 260.2946  2.13100781 87490
COSMOS 2471 (701K)      
1 37372U 11009A   21333.73624318 -.00000034  00000+0  00000+0 0  9995
2 37372  65.9479  10.0480 0017395 230.0810 101.1607  2.13062873 83702
COSMOS 2476 (744)       
1 37867U 11064A   21333.77268440  .00000103  00000+0  00000+0 0  9995
2 37867  64.5994 129.1888 0019669 230.2421 163.0233  2.13101852 78435
COSMOS 2477 (745)       
1 37868U 11064B   21333.80881617  .00000103  00000+0  00000+0 0  9997
2 37868  64.6079 129.2498 0016962 230.5798   8.6512  2.13101685 78384
COSMOS 2475 (743)       
1 37869U 11064C   21333.60795157  .00000104  00000+0  00000+0 0  9990
2 37869  64.6144 129.2631 0020355 252.5280 150.4731  2.13101912 78391
COSMOS 2485 (747)       
1 39155U 13019A   21333.60175716  .00000105  00000+0  00000+0 0  9996
2 39155  64.7647 129.5792 0020277 226.1183  80.4810  2.13101901 66893
COSMOS 2492 (754)       
1 39620U 14012A   21333.53696116 -.00000034  00000+0  00000+0 0  9993
2 39620  65.8418   9.8357 0013082 313.6524 337.8610  2.13103196 59844
COSMOS 2500 (755)       
1 40001U 14032A   21333.74067079 -.00000034  00000+0  00000+0 0  9993
2 40001  65.7825   9.7044 0008231 209.5471  97.4372  2.13102338 58060
COSMOS 2501 (702K)      
1 40315U 14075A   21333.47263597  .00000001  00000+0  00000+0 0  9994
2 40315  63.7324 248.1792 0017518 211.7718  56.6507  2.13101285 54463
COSMOS 2514 (751)       
1 41330U 16008A   21333.70118910 -.00000034  00000+0  00000+0 0  9991
2 41330  65.5835   9.4479 0012127 216.6922 243.4610  2.13102781 45238
COSMOS 2516 (753)       
1 41554U 16032A   21333.46590126  .00000001  00000+0  00000+0 0  9995
2 41554  63.9576 248.3988 0013737 221.0494 317.4714  2.13106483 42834
COSMOS 2522 (752)       
1 42939U 17055A   21333.74962818  .00000002  00000+0  00000+0 0  9992
2 42939  64.1913 248.7257 0008056 251.1155   5.0180  2.13102080 32597
COSMOS 2527 (756)       
1 43508U 18053A   21333.66982007  .00000105  00000+0  00000+0 0  9991
2 43508  64.9279 129.5352 0006939 211.6540  15.3737  2.13102530 26889
COSMOS 2529 (757)       
1 43687U 18086A   21333.81567583  .00000002  00000+0  00000+0 0  9996
2 43687  64.4063 248.9858 0010447 272.0997 350.2421  2.13102129 23901
COSMOS 2534 (758)       
1 44299U 19030A   21333.53308899  .00000001  00000+0  00000+0 0  9997
2 44299  64.4776 248.8618 0013321 290.3619 249.9021  2.13101905 19549
COSMOS 2544 (759)       
1 44850U 19088A   21333.60172103  .00000105  00000+0  00000+0 0  9993
2 44850  64.9131 129.3942 0009876 252.9497 325.4476  2.13102281 15316
COSMOS 2545 (760)       
1 45358U 20018A   21333.88193186 -.00000036  00000+0  00000+0 0  9990
2 45358  64.9183  10.2125 0011148 244.9369  38.2100  2.13102659 13277
